start=new Date('2022-12-05T00:00:00.000Z').valueOf();
sats=[{"REV_AT_EPOCH":"13821","MEAN_ANOMALY":"298.9820","GP_ID":"219526317","FILE":"3681312","EPOCH":"2022-12-04T17:44:30.209856","APOAPSIS":"548.704","INCLINATION":"53.0539","TIME_SYSTEM":"UTC","MEAN_MOTION":"15.06394727","TLE_LINE1":"1 45739U 20038K   22338.73923854 -.00000632  00000-0 -23545-4 0  9996","DECAY_DATE":null,"OBJECT_NAME":"STARLINK-1475","EPHEMERIS_TYPE":"0","ELEMENT_SET_NO":"999","PERIOD":"95.592","OBJECT_ID":"2020-038K","NORAD_CAT_ID":"45739","BSTAR":"-0.00002354500000","RA_OF_ASC_NODE":"142.9990","ARG_OF_PERICENTER":"61.1383","PERIAPSIS":"545.755","COUNTRY_CODE":"US","SITE":"AFETR","TLE_LINE2":"2 45739  53.0539 142.9990 0002129  61.1383 298.9820 15.06394727138212","SEMIMAJOR_AXIS":"6925.365","MEAN_MOTION_DOT":"-0.00000632","CENTER_NAME":"EARTH","REF_FRAME":"TEME","LAUNCH_DATE":"2020-06-13","MEAN_ELEMENT_THEORY":"SGP4","MEAN_MOTION_DDOT":"0.0000000000000","RCS_SIZE":"LARGE","CLASSIFICATION_TYPE":"U","ECCENTRICITY":"0.00021290","OBJECT_TYPE":"PAYLOAD"},{"PERIAPSIS":"546.016","ARG_OF_PERICENTER":"72.5392","COUNTRY_CODE":"US","BSTAR":"0.00002552700000","RA_OF_ASC_NODE":"182.4436","CENTER_NAME":"EARTH","MEAN_MOTION_DOT":"0.00000099","REF_FRAME":"TEME","SEMIMAJOR_AXIS":"6925.343","SITE":"AFETR","TLE_LINE2":"2 45740  53.0522 182.4436 0001722  72.5392 287.5786 15.06401716136708","MEAN_MOTION_DDOT":"0.0000000000000","MEAN_ELEMENT_THEORY":"SGP4","LAUNCH_DATE":"2020-06-13","ECCENTRICITY":"0.00017220","CLASSIFICATION_TYPE":"U","RCS_SIZE":"LARGE","OBJECT_TYPE":"PAYLOAD","GP_ID":"219550317","FILE":"3681494","MEAN_ANOMALY":"287.5786","REV_AT_EPOCH":"13670","MEAN_MOTION":"15.06401716","INCLINATION":"53.0522","TIME_SYSTEM":"UTC","EPOCH":"2022-12-04T20:46:19.158528","APOAPSIS":"548.401","EPHEMERIS_TYPE":"0","DECAY_DATE":null,"TLE_LINE1":"1 45740U 20038L   22338.86549952  .00000099  00000-0  25527-4 0  9992","OBJECT_NAME":"STARLINK-1479","NORAD_CAT_ID":"45740","PERIOD":"95.592","ELEMENT_SET_NO":"999","OBJECT_ID":"2020-038L"},{"CLASSIFICATION_TYPE":"U","RCS_SIZE":"LARGE","ECCENTRICITY":"0.00016630","OBJECT_TYPE":"PAYLOAD","MEAN_MOTION_DDOT":"0.0000000000000","MEAN_ELEMENT_THEORY":"SGP4","LAUNCH_DATE":"2020-06-13","MEAN_MOTION_DOT":"0.00000873","CENTER_NAME":"EARTH","REF_FRAME":"TEME","TLE_LINE2":"2 45741  53.0532 182.5662 0001663  68.9088 291.2079 15.06394313136719","SITE":"AFETR","SEMIMAJOR_AXIS":"6925.366","ARG_OF_PERICENTER":"68.9088","PERIAPSIS":"546.079","COUNTRY_CODE":"US","BSTAR":"0.00007748100000","RA_OF_ASC_NODE":"182.5662","NORAD_CAT_ID":"45741","ELEMENT_SET_NO":"999","PERIOD":"95.593","OBJECT_ID":"2020-038M","EPHEMERIS_TYPE":"0","TLE_LINE1":"1 45741U 20038M   22338.83601806  .00000873  00000-0  77481-4 0  9993","DECAY_DATE":null,"OBJECT_NAME":"STARLINK-1480","MEAN_MOTION":"15.06394313","APOAPSIS":"548.383","EPOCH":"2022-12-04T20:03:51.960384","INCLINATION":"53.0532","TIME_SYSTEM":"UTC","GP_ID":"219551070","FILE":"3681494","REV_AT_EPOCH":"13671","MEAN_ANOMALY":"291.2079"},{"NORAD_CAT_ID":"45742","OBJECT_ID":"2020-038N","ELEMENT_SET_NO":"999","PERIOD":"95.593","EPHEMERIS_TYPE":"0","OBJECT_NAME":"STARLINK-1481","TLE_LINE1":"1 45742U 20038N   22338.82864558  .00000949  00000-0  82619-4 0  9991","DECAY_DATE":null,"MEAN_MOTION":"15.06391952","APOAPSIS":"548.138","EPOCH":"2022-12-04T19:53:14.978112","TIME_SYSTEM":"UTC","INCLINATION":"53.0544","FILE":"3681494","GP_ID":"219551311","REV_AT_EPOCH":"13669","MEAN_ANOMALY":"275.4213","OBJECT_TYPE":"PAYLOAD","RCS_SIZE":"LARGE","CLASSIFICATION_TYPE":"U","ECCENTRICITY":"0.00012990","MEAN_MOTION_DDOT":"0.0000000000000","MEAN_ELEMENT_THEORY":"SGP4","LAUNCH_DATE":"2020-06-13","REF_FRAME":"TEME","MEAN_MOTION_DOT":"0.00000949","CENTER_NAME":"EARTH","SITE":"AFETR","TLE_LINE2":"2 45742  53.0544 182.5995 0001299  84.6924 275.4213 15.06391952136698","SEMIMAJOR_AXIS":"6925.373","COUNTRY_CODE":"US","ARG_OF_PERICENTER":"84.6924","PERIAPSIS":"546.339","RA_OF_ASC_NODE":"182.5995","BSTAR":"0.00008261900000"},{"ELEMENT_SET_NO":"999","PERIOD":"95.593","OBJECT_ID":"2020-038P","NORAD_CAT_ID":"45743","TLE_LINE1":"1 45743U 20038P   22338.84611976 -.00000320  00000-0 -25616-5 0  9998","DECAY_DATE":null,"OBJECT_NAME":"STARLINK-1483","EPHEMERIS_TYPE":"0","APOAPSIS":"548.610","EPOCH":"2022-12-04T20:18:24.747264","INCLINATION":"53.0534","TIME_SYSTEM":"UTC","MEAN_MOTION":"15.06391178","REV_AT_EPOCH":"13670","MEAN_ANOMALY":"305.8343","GP_ID":"219550566","FILE":"3681494","CLASSIFICATION_TYPE":"U","RCS_SIZE":"LARGE","ECCENTRICITY":"0.00019780","OBJECT_TYPE":"PAYLOAD","LAUNCH_DATE":"2020-06-13","MEAN_MOTION_DDOT":"0.0000000000000","MEAN_ELEMENT_THEORY":"SGP4","TLE_LINE2":"2 45743  53.0534 182.4593 0001978  54.2829 305.8343 15.06391178136706","SITE":"AFETR","SEMIMAJOR_AXIS":"6925.376","MEAN_MOTION_DOT":"-0.00000320","CENTER_NAME":"EARTH","REF_FRAME":"TEME","BSTAR":"-0.00000256160000","RA_OF_ASC_NODE":"182.4593","ARG_OF_PERICENTER":"54.2829","PERIAPSIS":"545.871","COUNTRY_CODE":"US"},{"MEAN_MOTION":"15.06419564","TIME_SYSTEM":"UTC","INCLINATION":"53.0534","EPOCH":"2022-12-04T13:15:10.336608","APOAPSIS":"548.290","FILE":"3681305","GP_ID":"219526955","MEAN_ANOMALY":"290.4914","REV_AT_EPOCH":"13758","NORAD_CAT_ID":"45744","OBJECT_ID":"2020-038Q","PERIOD":"95.591","ELEMENT_SET_NO":"999","EPHEMERIS_TYPE":"0","OBJECT_NAME":"STARLINK-1500","DECAY_DATE":null,"TLE_LINE1":"1 45744U 20038Q   22338.55220297 -.00005981  00000-0 -38274-3 0  9999","REF_FRAME":"TEME","CENTER_NAME":"EARTH","MEAN_MOTION_DOT":"-0.00005981","SEMIMAJOR_AXIS":"6925.289","TLE_LINE2":"2 45744  53.0534 183.8508 0001641  69.6251 290.4914 15.06419564137584","SITE":"AFETR","COUNTRY_CODE":"US","PERIAPSIS":"546.017","ARG_OF_PERICENTER":"69.6251","RA_OF_ASC_NODE":"183.8508","BSTAR":"-0.00038274000000","OBJECT_TYPE":"PAYLOAD","ECCENTRICITY":"0.00016410","RCS_SIZE":"LARGE","CLASSIFICATION_TYPE":"U","MEAN_ELEMENT_THEORY":"SGP4","MEAN_MOTION_DDOT":"0.0000000000000","LAUNCH_DATE":"2020-06-13"},{"EPOCH":"2022-12-04T14:34:47.017632","APOAPSIS":"548.385","INCLINATION":"53.0548","TIME_SYSTEM":"UTC","MEAN_MOTION":"15.06392180","REV_AT_EPOCH":"13759","MEAN_ANOMALY":"295.8452","FILE":"3681306","GP_ID":"219526863","OBJECT_ID":"2020-038R","ELEMENT_SET_NO":"999","PERIOD":"95.593","NORAD_CAT_ID":"45745","OBJECT_NAME":"STARLINK-1503","TLE_LINE1":"1 45745U 20038R   22338.60748863  .00000468  00000-0  50330-4 0  9991","DECAY_DATE":null,"EPHEMERIS_TYPE":"0","SITE":"AFETR","TLE_LINE2":"2 45745  53.0548 183.6017 0001657  64.2708 295.8452 15.06392180137599","SEMIMAJOR_AXIS":"6925.373","REF_FRAME":"TEME","MEAN_MOTION_DOT":"0.00000468","CENTER_NAME":"EARTH","RA_OF_ASC_NODE":"183.6017","BSTAR":"0.00005033000000","COUNTRY_CODE":"US","ARG_OF_PERICENTER":"64.2708","PERIAPSIS":"546.090","OBJECT_TYPE":"PAYLOAD","RCS_SIZE":"LARGE","CLASSIFICATION_TYPE":"U","ECCENTRICITY":"0.00016570","LAUNCH_DATE":"2020-06-13","MEAN_ELEMENT_THEORY":"SGP4","MEAN_MOTION_DDOT":"0.0000000000000"},{"TIME_SYSTEM":"UTC","INCLINATION":"53.0524","APOAPSIS":"548.278","EPOCH":"2022-12-04T13:20:28.019040","MEAN_MOTION":"15.06400095","MEAN_ANOMALY":"283.9864","REV_AT_EPOCH":"13665","FILE":"3681207","GP_ID":"219517419","OBJECT_ID":"2020-038S","PERIOD":"95.592","ELEMENT_SET_NO":"999","NORAD_CAT_ID":"45746","OBJECT_NAME":"STARLINK-1504","DECAY_DATE":null,"TLE_LINE1":"1 45746U 20038S   22338.55587985  .00000565  00000-0  56830-4 0  9991","EPHEMERIS_TYPE":"0","SEMIMAJOR_AXIS":"6925.348","TLE_LINE2":"2 45746  53.0524 183.8349 0001537  76.1296 283.9864 15.06400095136651","SITE":"AFETR","REF_FRAME":"TEME","CENTER_NAME":"EARTH","MEAN_MOTION_DOT":"0.00000565","RA_OF_ASC_NODE":"183.8349","BSTAR":"0.00005683000000","COUNTRY_CODE":"US","PERIAPSIS":"546.149","ARG_OF_PERICENTER":"76.1296","OBJECT_TYPE":"PAYLOAD","ECCENTRICITY":"0.00015370","RCS_SIZE":"LARGE","CLASSIFICATION_TYPE":"U","LAUNCH_DATE":"2020-06-13","MEAN_ELEMENT_THEORY":"SGP4","MEAN_MOTION_DDOT":"0.0000000000000"},{"LAUNCH_DATE":"2020-06-13","MEAN_ELEMENT_THEORY":"SGP4","MEAN_MOTION_DDOT":"0.0000000000000","ECCENTRICITY":"0.00009900","RCS_SIZE":"LARGE","CLASSIFICATION_TYPE":"U","OBJECT_TYPE":"PAYLOAD","BSTAR":"0.00014745000000","RA_OF_ASC_NODE":"183.2221","PERIAPSIS":"546.597","ARG_OF_PERICENTER":"78.5599","COUNTRY_CODE":"US","SEMIMAJOR_AXIS":"6925.418","SITE":"AFETR","TLE_LINE2":"2 45747  53.0529 183.2221 0000990  78.5599 281.5501 15.06377470137602","CENTER_NAME":"EARTH","MEAN_MOTION_DOT":"0.00001914","REF_FRAME":"TEME","DECAY_DATE":null,"TLE_LINE1":"1 45747U 20038T   22338.69226891  .00001914  00000-0  14745-3 0  9990","OBJECT_NAME":"STARLINK-1506","EPHEMERIS_TYPE":"0","PERIOD":"95.594","ELEMENT_SET_NO":"999","OBJECT_ID":"2020-038T","NORAD_CAT_ID":"45747","MEAN_ANOMALY":"281.5501","REV_AT_EPOCH":"13760","GP_ID":"219526864","FILE":"3681306","INCLINATION":"53.0529","TIME_SYSTEM":"UTC","APOAPSIS":"547.968","EPOCH":"2022-12-04T16:36:52.033824","MEAN_MOTION":"15.06377470"},{"FILE":"3681306","GP_ID":"219526867","MEAN_ANOMALY":"284.6878","REV_AT_EPOCH":"13760","MEAN_MOTION":"15.06393130","INCLINATION":"53.0539","TIME_SYSTEM":"UTC","EPOCH":"2022-12-04T14:44:02.533344","APOAPSIS":"548.271","EPHEMERIS_TYPE":"0","OBJECT_NAME":"STARLINK-1507","DECAY_DATE":null,"TLE_LINE1":"1 45748U 20038U   22338.61391821  .00000337  00000-0  41525-4 0  9994","NORAD_CAT_ID":"45748","OBJECT_ID":"2020-038U","PERIOD":"95.593","ELEMENT_SET_NO":"999","COUNTRY_CODE":"US","PERIAPSIS":"546.199","ARG_OF_PERICENTER":"75.4276","RA_OF_ASC_NODE":"183.5543","BSTAR":"0.00004152500000","REF_FRAME":"TEME","CENTER_NAME":"EARTH","MEAN_MOTION_DOT":"0.00000337","SEMIMAJOR_AXIS":"6925.370","TLE_LINE2":"2 45748  53.0539 183.5543 0001496  75.4276 284.6878 15.06393130137606","SITE":"AFETR","MEAN_ELEMENT_THEORY":"SGP4","MEAN_MOTION_DDOT":"0.0000000000000","LAUNCH_DATE":"2020-06-13","OBJECT_TYPE":"PAYLOAD","ECCENTRICITY":"0.00014960","RCS_SIZE":"LARGE","CLASSIFICATION_TYPE":"U"}];
